[{"OBJECT_NAME":"OBJECT AS","OBJECT_ID":"2023-085AS","EPOCH":"2026-03-09T22:43:55.521696","MEAN_MOTION":15.33336233,"ECCENTRICITY":0.00083243,"INCLINATION":97.4812,"RA_OF_ASC_NODE":180.8852,"ARG_OF_PERICENTER":80.6036,"MEAN_ANOMALY":279.6147,"EPHEMERIS_TYPE":0,"CLASSIFICATION_TYPE":"U","NORAD_CAT_ID":57044,"ELEMENT_SET_NO":999,"REV_AT_EPOCH":15162,"BSTAR":0.00067677795,"MEAN_MOTION_DOT":0.00021782,"MEAN_MOTION_DDOT":0},{"OBJECT_NAME":"STARLINK-32082","OBJECT_ID":"2024-136T","EPOCH":"2026-03-09T08:13:59.873376","MEAN_MOTION":15.30194163,"ECCENTRICITY":0.00012632,"INCLINATION":53.1609,"RA_OF_ASC_NODE":77.1191,"ARG_OF_PERICENTER":95.4838,"MEAN_ANOMALY":264.6307,"EPHEMERIS_TYPE":0,"CLASSIFICATION_TYPE":"U","NORAD_CAT_ID":60346,"ELEMENT_SET_NO":999,"REV_AT_EPOCH":8961,"BSTAR":2.6209013e-5,"MEAN_MOTION_DOT":4.17e-6,"MEAN_MOTION_DDOT":0}]
